#aV2012  3 23  0  0  0.00000000     288 DD+AD WGS84 FIT  NGA
## 1680 432000.00000000   300.00000000 56009 0.0000000000000
+   31     1  2  3  4  5  6  7  8  9 10 11 12 13 14 15 16 17
+         18 19 20 21 22 23 25 26 27 28 29 30 31 32  0  0  0
+          0  0  0  0  0  0  0  0  0  0  0  0  0  0  0  0  0
+          0  0  0  0  0  0  0  0  0  0  0  0  0  0  0  0  0
+          0  0  0  0  0  0  0  0  0  0  0  0  0  0  0  0  0
++         2  2  2  2  2  2  2  2  2  2  2  2  2  2  2  2  2
++         2  2  2  2  2  2  2  2  2  2  2  2  2  2  2  0  0
++         0  0  0  0  0  0  0  0  0  0  0  0  0  0  0  0  0
++         0  0  0  0  0  0  0  0  0  0  0  0  0  0  0  0  0
++         0  0  0  0  0  0  0  0  0  0  0  0  0  0  0  0  0
%c cc cc ccc ccc cccc cccc cccc cccc ccccc ccccc ccccc ccccc
%c cc cc ccc ccc cccc cccc cccc cccc ccccc ccccc ccccc ccccc
%f  0.0000000  0.000000000  0.00000000000  0.000000000000000
%f  0.0000000  0.000000000  0.00000000000  0.000000000000000
%i    0    0    0    0      0      0      0      0         0
%i    0    0    0    0      0      0      0      0         0
/*      NGA, ST. LOUIS,MO.                                  
/*   EPHEMERIS COMPUTED FROM  1 DAYS OF DATA
/*   EPOCHA SMOOTHER  
/* CCCCCCCCCCCCCCCCCCCCCCCCCCCCCCCCCCCCCCCCCCCCCCCCCCCCCCCCC
*  2012  3 23  0 15  0.00000000                                                 
P  1  -7634.292851 -13973.372603 -21272.405148    237.235796                    
V  1  26658.314668  -4207.822964  -6784.994499      0.064703                    
P  2 -16973.147587  13602.488066  14999.484052    383.840091                    
V  2 -19323.295223     24.728721 -22556.624542      0.014759                    
P  3  10096.870407 -23822.603504   4837.521705     26.037312                    
V  3   2093.103793   7589.211497  30422.762467      0.051454                    
P  4 -25128.610153   7215.152714   5320.243464    130.966438                    
V  4  -7378.508986  -2250.265756 -30071.005708      0.114689                    
P  5  -5105.848081  16701.940717  19950.287534   -296.746623                    
V  5 -16505.222652 -19419.877231  12140.027934     -0.042262                    
P  6  14028.482461 -20672.582450   8712.436931     31.898482                    
V  6   -383.544696  11530.182522  28688.474840     -0.001897                    
P  7 -20978.912909  -7541.476026  14643.768926     66.518105                    
V  7  18126.655157  -3687.706259  23862.821825      0.030437                    
P  8 -26667.692763  -1163.490202   3188.826252      0.884081                    
V  8   3851.971333  -1252.883434  31847.823735      0.000992                    
P  9   2905.642956  14671.508253 -22500.670125    146.518001                    
V  9 -26885.980441   3896.149834   -983.554681      0.024079                    
P 10 -17983.170468   -876.907472  19399.963843    -33.096429                    
V 10 -13842.475829 -20979.071595 -13213.901850     -0.011329                    
P 11  -1670.733743 -17299.659648 -20415.092525   -244.224960                    
V 11  23909.184589  -8897.765212   6017.383198     -0.036431                    
P 12   9393.430714  23230.091332  -9084.841381     59.344449                    
V 12  -8296.020857  -8136.756324 -29184.490687      0.021314                    
P 13 -10243.828848 -11246.545934  21616.102751    217.910885                    
V 13  13320.034231 -24329.653716  -6387.103311     -0.022335                    
P 14  17500.444796  -8064.591398 -18040.954835    197.903932                    
V 14  -9043.174033  21488.602382 -18335.565871      0.011819                    
P 15  -1190.330480  24186.679166 -10674.640341    -91.813380                    
V 15  -7777.472044  11606.523221  27395.471330      0.002776                    
P 16   5876.391036 -15653.063659  20568.992556   -228.459448                    
V 16  15789.726914  20830.282498  11653.195866     -0.015042                    
P 17 -17195.765333   5312.882176 -19278.362889    140.877144                    
V 17   9065.531242 -23262.268177 -14601.247895     -0.025059                    
P 18  19747.207788  15651.777707  -8604.857105    187.432009                    
V 18   4208.317267  11028.162139  28193.010370      0.018154                    
P 19   5778.628979 -24215.896810  -8723.678526   -248.173167                    
V 19   7743.002507  -8522.817571  29284.173816     -0.037585                    
P 20 -13202.197050 -22410.385234  -5721.465743     63.311137                    
V 20   7266.269670   3150.669191 -29891.360013     -0.000743                    
P 21  24024.519537   5376.031704  11167.735988   -212.399685                    
V 21 -12911.144542   4245.204987  26292.230924     -0.024884                    
P 22  18605.138274   1457.710029 -18766.126303    143.162261                    
V 22  13076.298153  20528.178785  14304.125799      0.000139                    
P 23  -3900.002640 -20226.519399  16586.720798    221.793770                    
V 23  10259.959064 -18614.795741 -20679.097357     -0.035168                    
P 25  18001.753653  19280.847046   3336.106135     32.418407                    
V 25    631.675830   4911.829568 -31495.755505      0.002737                    
P 26 -12517.240512  23147.159230    666.756820   -195.110880                    
V 26  -1422.123220  -2547.407650  32505.391428     -0.557516                    
P 27  -4763.870497  14873.044652 -20775.571644    369.609061                    
V 27 -27641.161622   3764.963840   9226.357864      0.039256                    
P 28 -18463.921468  -5602.491088 -17799.349959    125.427134                    
V 28 -12333.072002 -20167.446516  18356.856049      0.039953                    
P 29   9528.227993  13694.951674  20744.245243    296.283265                    
V 29 -11840.482522  23350.963274  -9968.108168      0.036597                    
P 30  13088.221595  -7945.913535  21349.379522    -95.638580                    
V 30  18873.040744  20629.439044  -3821.387707     -0.173907                    
P 31  24735.751418  -7445.870459   6899.401048    222.611927                    
V 31   8578.015487    875.357376 -30446.171414      0.043729                    
P 32  -5121.531415 -23473.977649 -11605.106781   -423.650373                    
V 32   9964.110477  11345.659420 -26377.139358     -0.047484                    
EOF
